[{"OBJECT_NAME":"STARLINK-5447","OBJECT_ID":"2022-175X","EPOCH":"2026-03-09T04:43:18.673824","MEAN_MOTION":15.08831851,"ECCENTRICITY":0.00012685,"INCLINATION":53.2191,"RA_OF_ASC_NODE":31.4361,"ARG_OF_PERICENTER":93.8484,"MEAN_ANOMALY":266.2653,"EPHEMERIS_TYPE":0,"CLASSIFICATION_TYPE":"U","NORAD_CAT_ID":54779,"ELEMENT_SET_NO":999,"REV_AT_EPOCH":18005,"BSTAR":-3.3152079e-5,"MEAN_MOTION_DOT":-8.15e-6,"MEAN_MOTION_DDOT":0},{"OBJECT_NAME":"CZ-6A DEB","OBJECT_ID":"2024-140KE","EPOCH":"2026-03-09T13:17:54.060288","MEAN_MOTION":15.16973657,"ECCENTRICITY":0.0047014,"INCLINATION":88.8608,"RA_OF_ASC_NODE":269.4441,"ARG_OF_PERICENTER":134.0266,"MEAN_ANOMALY":226.4867,"EPHEMERIS_TYPE":0,"CLASSIFICATION_TYPE":"U","NORAD_CAT_ID":60875,"ELEMENT_SET_NO":999,"REV_AT_EPOCH":8467,"BSTAR":0.004516425,"MEAN_MOTION_DOT":0.00092692,"MEAN_MOTION_DDOT":0}]
